#dP2021  4 16  0  0  0.00000000      97 __u+U IGS14 FIT  IAC
## 2153 432000.00000000   900.00000000 59320 0.0000000000000
+  122   C01C02C03C04C05C06C07C08C09C10C11C12C13C14C16C19C20
+        C21C22C23C24C25C26C27C28C29C30C32C33C34C35C36C37C38
+        C39C40C41C42C43C44C45C46E01E02E03E04E05E07E08E09E11
+        E12E13E14E15E18E19E21E24E25E26E27E30E31E33E36G01G02
+        G03G04G05G06G07G08G09G10G12G13G14G15G16G17G18G19G20
+        G21G22G23G24G25G26G27G28G29G30G31G32J01J02J03J07R01
+        R02R03R04R05R07R08R09R11R12R13R14R15R16R17R18R19R20
+        R21R22R24  0  0  0  0  0  0  0  0  0  0  0  0  0  0
++        13 13 13 13 13  9  9  9  9  9  8  8  8  8  9  7  7
++         7  7  7  7  7  7  7  7  7  7  7  7  7  7  7  7  8
++         8  8  7  8  7  7  7  7  4  4  4  4  4  4  4  4  4
++         4  4  4  4  5  4  4  4  5  4  4  4  4  4  5  4  4
++         3  3  4  6  4  4  3  4  4  4  4  4  4  4  3  4  4
++         4  4  4  4  3  3  4  4  3  4  3  4  8  8  8 13  7
++         6  5  5  5  5  5  5  7  5  7  5  5  7  5  5  7  7
++         6  7  5  0  0  0  0  0  0  0  0  0  0  0  0  0  0
%c M  cc GPS ccc cccc cccc cccc cccc ccccc ccccc ccccc ccccc
%c cc cc ccc ccc cccc cccc cccc cccc ccccc ccccc ccccc ccccc
%f  1.2500000  1.025000000  0.00000000000  0.000000000000000
%f  0.0000000  0.000000000  0.00000000000  0.000000000000000
%i    0    0    0    0      0      0      0      0         0
%i    0    0    0    0      0      0      0      0         0
/* INFORMATION & ANALYSIS CENTER (IAC)            FINAL DATA
/* S/V CLOCKS ARE ALIGNED TO GNSS TIME                      
/* G:C1WC2W R:C1PC2P E:C1XC5X C:C2IC6I J:C1CC2S             
/* PCV:IGS14_2148 OL/AL:FES2004  NONE     YN ORB:CoN CLK:CoN
*  2021 04 16  7 15  0.00000000
PC01 -34319.321873  24505.129502    183.382927   -555.807535
PC02   4334.873016  41895.078457   -978.701729    755.220106
PC03 -14721.338958  39468.523959    -32.290531   -396.858902
PC04 -39587.865465  14509.517991    514.240505    773.436134
PC05  21904.084437  35975.188722   -834.091783     78.844484
PC06  -8376.254913  25085.726653 -32263.746919    283.526617
PC07 -23703.807653  26876.221157  22062.928860   -125.455170
PC08 -15947.965701  38156.130403   9262.261354   -892.093027
PC09   5478.034639  33333.080756 -24656.899047    592.193446
PC10  -8249.412757  28509.599120  30012.059645    -55.850744
PC11   9719.053397  24365.782910   9626.746770   -806.533617
PC12  -5476.873372  16667.786676  21735.919210    925.894347
PC13  -7432.196891  41398.599293  -4319.008737    223.536930
PC14   4020.224097  15505.895372 -22822.200948    481.275259
PC16  -4288.365737  27380.968129 -31584.601088   -786.267799
PC19 -14686.051370 -12295.879174  20319.589031    800.493005
PC20   5591.492116 -16136.510491  22098.229504   -956.424454
PC21 -23531.231501  10449.163166 -10708.619457   -944.975277
PC22 -27056.132024  -1243.219451   6662.636194   -965.983365
PC23  16886.526475    927.525040  22197.906712   -888.836454
PC24  -8097.711171  26379.132034   4236.318554   -815.614527
PC25   7217.593390  18858.455730  19263.322566   -931.729179
PC26 -16754.044431  18921.243838 -11880.867469    920.336202
PC27  13256.926706  -8722.453458 -22973.340141    516.236658
PC28  20749.314269  10044.430075 -15726.268096    -85.669900
PC29 -16892.270723 -22206.575023   -715.962170    379.501665
PC30  -2345.789285 -22002.271443 -17025.547183    460.660131
PC32  23457.533951 -10666.101701  10748.602931   -942.020900
PC33  14732.803758  12237.973055 -20290.492761   -941.760016
PC34   2876.226272  22282.223543  16524.089487   -694.782683
PC35 -21170.381553  -9624.439856  15447.583925   -324.777705
PC36  -6518.921929 -19278.596931 -19073.388883   -731.284412
PC37  17411.913021 -17790.076520  12609.473755   -897.570138
PC38 -13573.085069  39669.824333   5042.962550    142.611861
PC39    205.127080  28980.290571 -30567.815477     30.365130
PC40 -14630.656243  23615.079801  31684.986165    151.636509
PC41  27008.250125   1300.074510  -6841.061886   -944.986078
PC42  -6364.463236  16126.511429 -21814.361229   -923.985290
PC43  16505.431411  22451.922368   1173.477475   -687.727400
PC44 -13232.679398   8990.814088  22856.915868    140.184059
PC45 -16818.122191   -718.865658 -22259.761887    415.138499
PC46   7385.299571 -26391.235423  -5164.466120    314.016966
PE01 -13441.764656 -10141.851653 -24348.224662  -1088.008934
PE02  13522.090208  10056.581551  24327.621040    212.530409
PE03  23671.612436  15386.627922  -8911.858787   -420.658235
PE04 -27903.787129  -3171.993976  -9341.684421   -751.169736
PE05   5457.902191  18761.589423 -22227.873865   -288.444590
PE07  15747.474432 -11166.939503  22452.141820   -526.204989
PE08  27837.903496   2837.458955   9679.516284   6016.871831
PE09 -15467.346459  11219.284876 -22593.603742   5699.260647
PE11  -9366.493377  20074.970689  19614.689164   6089.658257
PE12 -16553.092080  -1493.937971  24497.522947   5257.290164
PE13   9463.847801 -19758.008704 -19906.364510    415.090417
PE14 -14932.809537 -21145.761001 -10617.397231  -1398.635773
PE15  16469.982598   1378.478292 -24547.843609    819.205867
PE18  25742.992685  14110.585922  -4498.006118  -1530.163680
PE19 -22172.279127 -16279.484869  10946.645386    253.479373
PE21   4732.573192 -21411.374133 -19886.468718   -659.605706
PE24 -21368.504259  20283.380482   2970.425671   -849.770172
PE25  -4932.327854  21474.821642  19768.795334   -531.138270
PE26  -3441.653034 -29270.681074  -2777.082028   1918.976146
PE27  20840.716571 -20680.129325  -3726.670505    -12.251144
PE30  24447.307637  -6898.489446  15170.899328   3021.075649
PE31 -24592.375613   7805.415858 -14509.036394   -480.211588
PE33 -13772.751804 -21677.331520  14735.981551   -467.596681
PE36   3093.199212  29214.551526   3561.172512   -194.364374
PG01 -13218.982122  12097.513674  19228.970221    714.938337
PG02  13238.950710  13336.604779 -18098.759401   -596.093161
PG03 -23129.748013  12924.453341   -468.417177   -138.169049
PG04 -18094.492902   4012.903354 -19038.875053   -192.050302
PG05  22328.670974  -1183.137399 -14629.577992    -39.224856
PG06   6482.144192  23371.246982 -10696.502691      7.628516
PG07  -7371.787167  23378.919725  -9222.647565    123.503279
PG08 -22993.861844  -2986.675156  13219.465228    -17.677391
PG09  -8267.979815  13008.559843 -21691.290123   -339.244875
PG10    523.535035 -16583.542581  20795.353820   -102.975782
PG12  24551.614727  -9665.091880   1985.186394    -28.448373
PG13  22569.205431  12403.819778   6639.678513    120.524602
PG14  -2256.905441  16977.842109  20283.823816     95.676138
PG15  23295.686416    345.932316  12708.683614   -155.845730
PG16 -20534.316395  -3682.474170 -16949.593829   -310.454705
PG17   8063.398844  19303.136431  16790.181425    427.177688
PG18   5336.964678 -25289.113254  -5984.661116    351.615048
PG19  15475.973254  19533.116791   9050.368347    -12.307011
PG20  19758.389828 -17265.953885   2721.756883    523.124347
PG21 -15391.137230   3457.261993  22053.111353    111.344399
PG22 -23622.281167   7632.577191   9372.691523   -636.771295
PG23  12020.229807 -18632.208459  14568.953024    113.209528
PG24  14948.024536  -6555.692605  20646.186701      9.908220
PG25  17579.665515 -17315.014160  -9718.503401    119.501744
PG26 -13073.912570  -9937.175482 -20975.318860     72.816365
PG27 -23566.485452 -12379.809637   2592.931098   -113.589140
PG28    510.048039  15941.168231  21824.172216    586.020698
PG29   8429.777955 -12069.365019 -22153.266138   -330.863311
PG30   1089.372165  26206.684337   3342.016493   -413.499010
PG31  -8234.794558 -21321.638278 -13209.838116   -111.870935
PG32 -11075.552586 -19056.529242  15049.779591     22.086392
PJ01 -32852.644207  15424.937512 -16835.732549   -366.280878
PJ02 -28299.457983  31308.452267   3159.658223      5.615000
PJ03 -25903.301028  22526.816490  29546.653127     -3.490429
PJ07 -25399.458939  33649.503570    -53.484986     -0.010544
PR01  18151.158821   8399.926716 -15835.129266     77.960133
PR02  25149.716122   -234.544496   4116.545618    474.996897
PR03  15255.357671  -8030.332163  18826.998211     34.297202
PR04  -3044.276193 -10951.300665  22867.832057     82.615560
PR05 -19689.203624  -7967.096141  14156.989427     70.064690
PR07 -14787.283034   8165.582849 -19087.527579    -42.540193
PR08   3103.824005  11031.663412 -22726.940130    -58.563369
PR09 -16045.432638   8782.027832 -17731.595587    -11.822456
PR11  -5301.268923  20609.928070  14063.178284      0.625938
PR12   7594.554959   8312.797744  22911.378801    221.254200
PR13  15733.906198  -8429.006783  18202.333727    -53.519793
PR14  14853.454894 -20615.799750   2333.042560     63.195886
PR15   5257.370035 -20408.331980 -14354.745667    104.338483
PR16  -8645.175064  -7184.544003 -22918.899975    -13.845241
PR17   4478.265009 -12989.687749 -21476.804927    416.481576
PR18  -6193.334093 -22774.886128  -9739.398425     73.349772
PR19 -12748.857910 -21149.070869   6399.328701   -139.979300
PR20 -12855.583166  -5392.027978  21380.499245    -47.391842
PR21  -3696.577012  13989.061452  21011.106246   -202.102816
PR22   6661.300350  22953.783988   8749.569273   -108.037413
PR24  13108.209916   4256.686829 -21450.439417     39.041750
EOF
